[{"OBJECT_NAME":"CO3D 4","OBJECT_ID":"2025-156C","EPOCH":"2026-03-02T06:59:52.721952","MEAN_MOTION":15.20203154,"ECCENTRICITY":2.545e-5,"INCLINATION":97.4334,"RA_OF_ASC_NODE":141.5187,"ARG_OF_PERICENTER":280.3117,"MEAN_ANOMALY":79.8089,"EPHEMERIS_TYPE":0,"CLASSIFICATION_TYPE":"U","NORAD_CAT_ID":64901,"ELEMENT_SET_NO":999,"REV_AT_EPOCH":3329,"BSTAR":6.0250155e-5,"MEAN_MOTION_DOT":1.237e-5,"MEAN_MOTION_DDOT":0},{"OBJECT_NAME":"TRANSPORTER-15 OBJECT CZ","OBJECT_ID":"2025-276CZ","EPOCH":"2026-03-09T17:32:17.005632","MEAN_MOTION":15.20454432,"ECCENTRICITY":6.906e-5,"INCLINATION":97.4256,"RA_OF_ASC_NODE":144.1611,"ARG_OF_PERICENTER":127.7851,"MEAN_ANOMALY":232.3447,"EPHEMERIS_TYPE":0,"CLASSIFICATION_TYPE":"U","NORAD_CAT_ID":66761,"ELEMENT_SET_NO":999,"REV_AT_EPOCH":1533,"BSTAR":0.0005331226,"MEAN_MOTION_DOT":0.00011576,"MEAN_MOTION_DDOT":0}]
