CO3D 4                  
1 64901U 25156C   26061.29158243  .00001237  00000+0  60250-4 0  9997
2 64901  97.4334 141.5187 0000254 280.3117  79.8089 15.20203154 33293
TRANSPORTER-15 OBJECT CZ
1 66761U 25276CZ  26068.73075237  .00011576  00000+0  53312-3 0  9990
2 66761  97.4256 144.1611 0000691 127.7851 232.3447 15.20454432 15333
